{"type": "FeatureCollection", "features": [ {"type": "Feature", "properties": {"norad_id": 28659, "name": "DIRECTV 8", "group": "intelsat", "lat": -0.02119574132754775, "lon": -56.59271845997414, "alt_km": 35775.90704871927, "timestamp": "2025-12-12T22:42:12.217539+00:00", "meta": {"OBJECT_NAME": "DIRECTV 8", "OBJECT_ID": "2005-019A", "EPOCH": "2025-12-12T06:04:01.254720", "MEAN_MOTION": 1.00271674, "ECCENTRICITY": 0.00030373, "INCLINATION": 0.0185, "RA_OF_ASC_NODE": 58.4438, "ARG_OF_PERICENTER": 207.3523, "MEAN_ANOMALY": 147.3675, "EPHEMERIS_TYPE": 0, "CLASSIFICATION_TYPE": "U", "NORAD_CAT_ID": 28659, "ELEMENT_SET_NO": 999, "REV_AT_EPOCH": 7519, "BSTAR": 0, "MEAN_MOTION_DOT": 1.1e-07, "MEAN_MOTION_DDOT": 0}, "tle": {"line1": "1 28659U 05019A   25346.25279230  .00000011  00000+0  00000+0 0  9995", "line2": "2 28659   0.0185  58.4438 0003037 207.3523 147.3675  1.00271674 75196"}}, "geometry": {"type": "Point", "coordinates": [-56.59271845997414, -0.02119574132754775]}}, {"type": "Feature", "properties": {"norad_id": 28702, "name": "GALAXY 28 (G-28)", "group": "intelsat", "lat": -2.6908612610429206, "lon": -26.242759280962645, "alt_km": 35782.30359397877, "timestamp": "2025-12-12T22:42:12.217552+00:00", "meta": {"OBJECT_NAME": "GALAXY 28 (G-28)", "OBJECT_ID": "2005-022A", "EPOCH": "2025-12-12T06:12:37.931040", "MEAN_MOTION": 1.00271951, "ECCENTRICITY": 0.00027911, "INCLINATION": 2.8175, "RA_OF_ASC_NODE": 81.2879, "ARG_OF_PERICENTER": 182.953, "MEAN_ANOMALY": 181.4381, "EPHEMERIS_TYPE": 0, "CLASSIFICATION_TYPE": "U", "NORAD_CAT_ID": 28702, "ELEMENT_SET_NO": 999, "REV_AT_EPOCH": 5010, "BSTAR": 0, "MEAN_MOTION_DOT": -1.78e-06, "MEAN_MOTION_DDOT": 0}, "tle": {"line1": "1 28702U 05022A   25346.25877235 -.00000178  00000+0  00000+0 0  9992", "line2": "2 28702   2.8175  81.2879 0002791 182.9530 181.4381  1.00271951 50104"}}, "geometry": {"type": "Point", "coordinates": [-26.242759280962645, -2.6908612610429206]}}, {"type": "Feature", "properties": {"norad_id": 29236, "name": "GALAXY 16 (G-16)", "group": "intelsat", "lat": -0.018669171029590693, "lon": -36.547082582213335, "alt_km": 35781.15988623132, "timestamp": "2025-12-12T22:42:12.217568+00:00", "meta": {"OBJECT_NAME": "GALAXY 16 (G-16)", "OBJECT_ID": "2006-023A", "EPOCH": "2025-12-12T06:09:38.217312", "MEAN_MOTION": 1.00272317, "ECCENTRICITY": 0.00026576, "INCLINATION": 0.0378, "RA_OF_ASC_NODE": 147.8178, "ARG_OF_PERICENTER": 110.8425, "MEAN_ANOMALY": 175.9491, "EPHEMERIS_TYPE": 0, "CLASSIFICATION_TYPE": "U", "NORAD_CAT_ID": 29236, "ELEMENT_SET_NO": 999, "REV_AT_EPOCH": 7109, "BSTAR": 0, "MEAN_MOTION_DOT": -1.17e-06, "MEAN_MOTION_DDOT": 0}, "tle": {"line1": "1 29236U 06023A   25346.25669233 -.00000117  00000+0  00000+0 0  9997", "line2": "2 29236   0.0378 147.8178 0002657 110.8425 175.9491  1.00272317 71095"}}, "geometry": {"type": "Point", "coordinates": [-36.547082582213335, -0.018669171029590693]}}, {"type": "Feature", "properties": {"norad_id": 29494, "name": "DIRECTV 9S", "group": "intelsat", "lat": -1.652445832896985, "lon": -38.76550592835747, "alt_km": 35779.3206811389, "timestamp": "2025-12-12T22:42:12.217583+00:00", "meta": {"OBJECT_NAME": "DIRECTV 9S", "OBJECT_ID": "2006-043A", "EPOCH": "2025-12-12T06:09:00.776736", "MEAN_MOTION": 1.00271837, "ECCENTRICITY": 0.00030203, "INCLINATION": 1.9393, "RA_OF_ASC_NODE": 83.2152, "ARG_OF_PERICENTER": 181.1332, "MEAN_ANOMALY": 167.8977, "EPHEMERIS_TYPE": 0, "CLASSIFICATION_TYPE": "U", "NORAD_CAT_ID": 29494, "ELEMENT_SET_NO": 999, "REV_AT_EPOCH": 4950, "BSTAR": 0, "MEAN_MOTION_DOT": -1.04e-06, "MEAN_MOTION_DDOT": 0}, "tle": {"line1": "1 29494U 06043A   25346.25625899 -.00000104  00000+0  00000+0 0  9991", "line2": "2 29494   1.9393  83.2152 0003020 181.1332 167.8977  1.00271837 49502"}}, "geometry": {"type": "Point", "coordinates": [-38.76550592835747, -1.652445832896985]}}, {"type": "Feature", "properties": {"norad_id": 31307, "name": "GALAXY 17 (G-17)", "group": "intelsat", "lat": -2.419057239663396, "lon": -22.494497581275933, "alt_km": 35786.63750538793, "timestamp": "2025-12-12T22:42:12.217595+00:00", "meta": {"OBJECT_NAME": "GALAXY 17 (G-17)", "OBJECT_ID": "2007-016B", "EPOCH": "2025-12-12T06:13:37.834752", "MEAN_MOTION": 1.00272492, "ECCENTRICITY": 0.00058541, "INCLINATION": 2.4992, "RA_OF_ASC_NODE": 82.2905, "ARG_OF_PERICENTER": 164.1965, "MEAN_ANOMALY": 203.146, "EPHEMERIS_TYPE": 0, "CLASSIFICATION_TYPE": "U", "NORAD_CAT_ID": 31307, "ELEMENT_SET_NO": 999, "REV_AT_EPOCH": 6793, "BSTAR": 0, "MEAN_MOTION_DOT": -1.97e-06, "MEAN_MOTION_DDOT": 0}, "tle": {"line1": "1 31307U 07016B   25346.25946568 -.00000197  00000+0  00000+0 0  9999", "line2": "2 31307   2.4992  82.2905 0005854 164.1965 203.1460  1.00272492 67930"}}, "geometry": {"type": "Point", "coordinates": [-22.494497581275933, -2.419057239663396]}}, {"type": "Feature", "properties": {"norad_id": 31862, "name": "DIRECTV 10", "group": "intelsat", "lat": 0.0016737515202704552, "lon": -40.35081193253356, "alt_km": 35786.22373176943, "timestamp": "2025-12-12T22:42:12.217606+00:00", "meta": {"OBJECT_NAME": "DIRECTV 10", "OBJECT_ID": "2007-032A", "EPOCH": "2025-12-11T14:44:08.030112", "MEAN_MOTION": 1.00271436, "ECCENTRICITY": 3.191e-05, "INCLINATION": 0.0124, "RA_OF_ASC_NODE": 167.5307, "ARG_OF_PERICENTER": 60.5816, "MEAN_ANOMALY": 330.7109, "EPHEMERIS_TYPE": 0, "CLASSIFICATION_TYPE": "U", "NORAD_CAT_ID": 31862, "ELEMENT_SET_NO": 999, "REV_AT_EPOCH": 4371, "BSTAR": 0, "MEAN_MOTION_DOT": -9.6e-07, "MEAN_MOTION_DDOT": 0}, "tle": {"line1": "1 31862U 07032A   25345.61398183 -.00000096  00000+0  00000+0 0  9994", "line2": "2 31862   0.0124 167.5307 0000319  60.5816 330.7109  1.00271436 43719"}}, "geometry": {"type": "Point", "coordinates": [-40.35081193253356, 0.0016737515202704552]}}, {"type": "Feature", "properties": {"norad_id": 32253, "name": "INTELSAT 11 (IS-11)", "group": "intelsat", "lat": -1.3800082559628288, "lon": -72.76511727530703, "alt_km": 36103.710843652734, "timestamp": "2025-12-12T22:42:12.217618+00:00", "meta": {"OBJECT_NAME": "INTELSAT 11 (IS-11)", "OBJECT_ID": "2007-044B", "EPOCH": "2025-12-12T06:00:16.613856", "MEAN_MOTION": 0.99048636, "ECCENTRICITY": 0.00089075, "INCLINATION": 3.0792, "RA_OF_ASC_NODE": 80.9819, "ARG_OF_PERICENTER": 165.6758, "MEAN_ANOMALY": 152.442, "EPHEMERIS_TYPE": 0, "CLASSIFICATION_TYPE": "U", "NORAD_CAT_ID": 32253, "ELEMENT_SET_NO": 999, "REV_AT_EPOCH": 6659, "BSTAR": 0, "MEAN_MOTION_DOT": 8e-07, "MEAN_MOTION_DDOT": 0}, "tle": {"line1": "1 32253U 07044B   25346.25019229  .00000080  00000+0  00000+0 0  9996", "line2": "2 32253   3.0792  80.9819 0008907 165.6758 152.4420  0.99048636 66594"}}, "geometry": {"type": "Point", "coordinates": [-72.76511727530703, -1.3800082559628288]}}, {"type": "Feature", "properties": {"norad_id": 32388, "name": "HORIZONS-2", "group": "intelsat", "lat": -2.1130083076409716, "lon": -11.31620452050388, "alt_km": 35781.960010931885, "timestamp": "2025-12-12T22:42:12.217630+00:00", "meta": {"OBJECT_NAME": "HORIZONS-2", "OBJECT_ID": "2007-063B", "EPOCH": "2025-12-12T06:16:52.524192", "MEAN_MOTION": 1.00269956, "ECCENTRICITY": 0.00049084, "INCLINATION": 2.1205, "RA_OF_ASC_NODE": 82.9663, "ARG_OF_PERICENTER": 189.6669, "MEAN_ANOMALY": 189.0005, "EPHEMERIS_TYPE": 0, "CLASSIFICATION_TYPE": "U", "NORAD_CAT_ID": 32388, "ELEMENT_SET_NO": 999, "REV_AT_EPOCH": 6594, "BSTAR": 0, "MEAN_MOTION_DOT": -2.43e-06, "MEAN_MOTION_DDOT": 0}, "tle": {"line1": "1 32388U 07063B   25346.26171903 -.00000243  00000+0  00000+0 0  9997", "line2": "2 32388   2.1205  82.9663 0004908 189.6669 189.0005  1.00269956 65941"}}, "geometry": {"type": "Point", "coordinates": [-11.31620452050388, -2.1130083076409716]}}, {"type": "Feature", "properties": {"norad_id": 32729, "name": "DIRECTV 11", "group": "intelsat", "lat": 0.016206753463801637, "lon": -36.76086173993883, "alt_km": 35787.970415618074, "timestamp": "2025-12-12T22:42:12.217642+00:00", "meta": {"OBJECT_NAME": "DIRECTV 11", "OBJECT_ID": "2008-013A", "EPOCH": "2025-12-11T21:35:58.588224", "MEAN_MOTION": 1.00271084, "ECCENTRICITY": 5.41e-05, "INCLINATION": 0.0355, "RA_OF_ASC_NODE": 183.5345, "ARG_OF_PERICENTER": 2.2866, "MEAN_ANOMALY": 119.8352, "EPHEMERIS_TYPE": 0, "CLASSIFICATION_TYPE": "U", "NORAD_CAT_ID": 32729, "ELEMENT_SET_NO": 999, "REV_AT_EPOCH": 4371, "BSTAR": 0, "MEAN_MOTION_DOT": -1.17e-06, "MEAN_MOTION_DDOT": 0}, "tle": {"line1": "1 32729U 08013A   25345.89998366 -.00000117  00000+0  00000+0 0  9990", "line2": "2 32729   0.0355 183.5345 0000541   2.2866 119.8352  1.00271084 43718"}}, "geometry": {"type": "Point", "coordinates": [-36.76086173993883, 0.016206753463801637]}}, {"type": "Feature", "properties": {"norad_id": 32951, "name": "GALAXY 18 (G-18)", "group": "intelsat", "lat": -0.02228767953983496, "lon": -60.572293145970136, "alt_km": 35776.060693759166, "timestamp": "2025-12-12T22:42:12.217653+00:00", "meta": {"OBJECT_NAME": "GALAXY 18 (G-18)", "OBJECT_ID": "2008-024A", "EPOCH": "2025-12-12T06:02:46.375296", "MEAN_MOTION": 1.00270121, "ECCENTRICITY": 0.0002921, "INCLINATION": 0.0202, "RA_OF_ASC_NODE": 335.0381, "ARG_OF_PERICENTER": 292.1416, "MEAN_ANOMALY": 141.6988, "EPHEMERIS_TYPE": 0, "CLASSIFICATION_TYPE": "U", "NORAD_CAT_ID": 32951, "ELEMENT_SET_NO": 999, "REV_AT_EPOCH": 4397, "BSTAR": 0, "MEAN_MOTION_DOT": 0, "MEAN_MOTION_DDOT": 0}, "tle": {"line1": "1 32951U 08024A   25346.25192564  .00000000  00000+0  00000+0 0  9996", "line2": "2 32951   0.0202 335.0381 0002921 292.1416 141.6988  1.00270121 43972"}}, "geometry": {"type": "Point", "coordinates": [-60.572293145970136, -0.02228767953983496]}}]}